IRIDIUM 39              
1 25042U 97069D   26009.55856757  .00000793  00000+0  20113-3 0  9997
2 25042  86.3934 122.7028 0016815 343.3712  16.6939 14.49557624478857
IRIDIUM 38              
1 25043U 97069E   26009.66634054  .00000567  00000+0  17985-3 0  9996
2 25043  86.3993 146.3665 0003611 117.3683 242.7883 14.38348987475639
IRIDIUM 42              
1 25077U 97077A   26009.64850247  .00000486  00000+0  15878-3 0  9993
2 25077  86.3999 152.7971 0002405 111.0207 249.1247 14.36563137470832
IRIDIUM 44              
1 25078U 97077B   26009.39255063  .00000468  00000+0  14111-3 0  9990
2 25078  86.3989 134.2879 0003821  82.8015 277.3618 14.40461097473384
IRIDIUM 45              
1 25104U 97082A   26009.30077012  .00031199  00000+0  84572-3 0  9996
2 25104  86.3551 307.0775 0090815 274.3751  84.7127 15.33325712483492
IRIDIUM 51              
1 25262U 98018A   26009.32982981  .00153586  00000+0  12355-2 0  9997
2 25262  86.3721 312.0113 0047337 157.1711 203.1678 15.68973004478968
IRIDIUM 57              
1 25273U 98019B   26009.64370428  .00000345  00000+0  11169-3 0  9999
2 25273  86.3929  58.6822 0002323  94.3631 265.7831 14.36075627454416
